start=new Date('2022-08-21T00:00:00.000Z').valueOf();
sats=[{"CLASSIFICATION_TYPE":"U","RA_OF_ASC_NODE":"100.5581","COUNTRY_CODE":"US","MEAN_MOTION_DDOT":"0.0000000000000","MEAN_ANOMALY":"211.8167","CENTER_NAME":"EARTH","REV_AT_EPOCH":"130","NORAD_CAT_ID":"51987","OBJECT_TYPE":"PAYLOAD","RCS_SIZE":"LARGE","EPHEMERIS_TYPE":"0","REF_FRAME":"TEME","MEAN_MOTION":"15.08814221","SEMIMAJOR_AXIS":"6917.959","OBJECT_ID":"2022-025AH","TLE_LINE2":"2 51987  53.2177 100.5581 0001724  60.6924 211.8167 15.08814221  1300","BSTAR":"-0.00027496000000","INCLINATION":"53.2177","ECCENTRICITY":"0.00017240","PERIAPSIS":"538.632","ELEMENT_SET_NO":"999","TLE_LINE1":"1 51987U 22025AH  22232.91667824 -.00004658  00000-0 -27496-3 0  9991","LAUNCH_DATE":"2022-03-09","PERIOD":"95.439","EPOCH":"2022-08-20T22:00:00.999936","ARG_OF_PERICENTER":"60.6924","SITE":"AFETR","APOAPSIS":"541.017","OBJECT_NAME":"STARLINK-3644","TIME_SYSTEM":"UTC","GP_ID":"210621871","MEAN_ELEMENT_THEORY":"SGP4","MEAN_MOTION_DOT":"-0.00004658","DECAY_DATE":null,"FILE":"3541760"},{"NORAD_CAT_ID":"51988","OBJECT_TYPE":"PAYLOAD","RCS_SIZE":"LARGE","EPHEMERIS_TYPE":"0","REF_FRAME":"TEME","MEAN_MOTION":"15.08821333","SEMIMAJOR_AXIS":"6917.937","OBJECT_ID":"2022-025AJ","CLASSIFICATION_TYPE":"U","COUNTRY_CODE":"US","RA_OF_ASC_NODE":"100.5607","MEAN_MOTION_DDOT":"0.0000000000000","MEAN_ANOMALY":"317.3615","CENTER_NAME":"EARTH","REV_AT_EPOCH":"130","ELEMENT_SET_NO":"999","TLE_LINE1":"1 51988U 22025AJ  22232.91667824 -.00008296  00000-0 -50401-3 0  9996","LAUNCH_DATE":"2022-03-09","EPOCH":"2022-08-20T22:00:00.999936","PERIOD":"95.439","ARG_OF_PERICENTER":"55.1583","SITE":"AFETR","APOAPSIS":"540.981","OBJECT_NAME":"STARLINK-3640","GP_ID":"210620647","TIME_SYSTEM":"UTC","MEAN_ELEMENT_THEORY":"SGP4","MEAN_MOTION_DOT":"-0.00008296","DECAY_DATE":null,"FILE":"3541760","BSTAR":"-0.00050401000000","TLE_LINE2":"2 51988  53.2179 100.5607 0001704  55.1583 317.3615 15.08821333  1302","INCLINATION":"53.2179","ECCENTRICITY":"0.00017040","PERIAPSIS":"538.624"},{"MEAN_MOTION":"15.08834008","OBJECT_ID":"2022-025AK","SEMIMAJOR_AXIS":"6917.899","RCS_SIZE":"LARGE","NORAD_CAT_ID":"51989","OBJECT_TYPE":"PAYLOAD","EPHEMERIS_TYPE":"0","REF_FRAME":"TEME","MEAN_MOTION_DDOT":"0.0000000000000","REV_AT_EPOCH":"130","MEAN_ANOMALY":"237.8962","CENTER_NAME":"EARTH","CLASSIFICATION_TYPE":"U","COUNTRY_CODE":"US","RA_OF_ASC_NODE":"100.5635","TIME_SYSTEM":"UTC","GP_ID":"210621898","OBJECT_NAME":"STARLINK-3642","MEAN_ELEMENT_THEORY":"SGP4","MEAN_MOTION_DOT":"-0.00005384","FILE":"3541760","DECAY_DATE":null,"LAUNCH_DATE":"2022-03-09","EPOCH":"2022-08-20T22:00:00.999936","PERIOD":"95.438","ARG_OF_PERICENTER":"54.6015","ELEMENT_SET_NO":"999","TLE_LINE1":"1 51989U 22025AK  22232.91667824 -.00005384  00000-0 -32046-3 0  9997","APOAPSIS":"540.918","SITE":"AFETR","ECCENTRICITY":"0.00016680","PERIAPSIS":"538.610","BSTAR":"-0.00032046000000","TLE_LINE2":"2 51989  53.2184 100.5635 0001668  54.6015 237.8962 15.08834008  1307","INCLINATION":"53.2184"},{"EPHEMERIS_TYPE":"0","REF_FRAME":"TEME","RCS_SIZE":"LARGE","NORAD_CAT_ID":"51990","OBJECT_TYPE":"PAYLOAD","OBJECT_ID":"2022-025AL","SEMIMAJOR_AXIS":"6917.899","MEAN_MOTION":"15.08833889","CLASSIFICATION_TYPE":"U","RA_OF_ASC_NODE":"80.5581","COUNTRY_CODE":"US","REV_AT_EPOCH":"2667","MEAN_ANOMALY":"17.7392","CENTER_NAME":"EARTH","MEAN_MOTION_DDOT":"0.0000000000000","APOAPSIS":"540.743","SITE":"AFETR","LAUNCH_DATE":"2022-03-09","EPOCH":"2022-08-20T22:00:00.999936","PERIOD":"95.438","ARG_OF_PERICENTER":"84.7897","ELEMENT_SET_NO":"999","TLE_LINE1":"1 51990U 22025AL  22232.91667824  .00008931  00000-0  57858-3 0  9996","MEAN_ELEMENT_THEORY":"SGP4","MEAN_MOTION_DOT":"0.00008931","DECAY_DATE":null,"FILE":"3541470","GP_ID":"210590749","TIME_SYSTEM":"UTC","OBJECT_NAME":"STARLINK-3657","INCLINATION":"53.2158","BSTAR":"0.00057858000000","TLE_LINE2":"2 51990  53.2158  80.5581 0001415  84.7897  17.7392 15.08833889 26674","PERIAPSIS":"538.785","ECCENTRICITY":"0.00014150"},{"SEMIMAJOR_AXIS":"6917.880","OBJECT_ID":"2022-025AM","MEAN_MOTION":"15.08840206","REF_FRAME":"TEME","EPHEMERIS_TYPE":"0","OBJECT_TYPE":"PAYLOAD","NORAD_CAT_ID":"51991","RCS_SIZE":"LARGE","CENTER_NAME":"EARTH","MEAN_ANOMALY":"275.3664","REV_AT_EPOCH":"130","MEAN_MOTION_DDOT":"0.0000000000000","COUNTRY_CODE":"US","RA_OF_ASC_NODE":"100.5662","CLASSIFICATION_TYPE":"U","FILE":"3541760","DECAY_DATE":null,"MEAN_ELEMENT_THEORY":"SGP4","MEAN_MOTION_DOT":"-0.00006506","OBJECT_NAME":"STARLINK-3652","TIME_SYSTEM":"UTC","GP_ID":"210622371","SITE":"AFETR","APOAPSIS":"541.132","TLE_LINE1":"1 51991U 22025AM  22232.91667824 -.00006506  00000-0 -39099-3 0  9992","ELEMENT_SET_NO":"999","EPOCH":"2022-08-20T22:00:00.999936","PERIOD":"95.438","ARG_OF_PERICENTER":"57.1566","LAUNCH_DATE":"2022-03-09","PERIAPSIS":"538.357","ECCENTRICITY":"0.00020060","INCLINATION":"53.2189","BSTAR":"-0.00039099000000","TLE_LINE2":"2 51991  53.2189 100.5662 0002006  57.1566 275.3664 15.08840206  1304"},{"MEAN_MOTION":"15.08828663","SEMIMAJOR_AXIS":"6917.915","OBJECT_ID":"2022-025AN","NORAD_CAT_ID":"51992","OBJECT_TYPE":"PAYLOAD","RCS_SIZE":"LARGE","EPHEMERIS_TYPE":"0","REF_FRAME":"TEME","MEAN_MOTION_DDOT":"0.0000000000000","MEAN_ANOMALY":"99.4749","CENTER_NAME":"EARTH","REV_AT_EPOCH":"2668","CLASSIFICATION_TYPE":"U","COUNTRY_CODE":"US","RA_OF_ASC_NODE":"80.5665","OBJECT_NAME":"STARLINK-3643","TIME_SYSTEM":"UTC","GP_ID":"210590997","MEAN_ELEMENT_THEORY":"SGP4","MEAN_MOTION_DOT":"0.00010511","DECAY_DATE":null,"FILE":"3541470","ELEMENT_SET_NO":"999","TLE_LINE1":"1 51992U 22025AN  22232.91667824  .00010511  00000-0  67772-3 0  9991","LAUNCH_DATE":"2022-03-09","PERIOD":"95.438","EPOCH":"2022-08-20T22:00:00.999936","ARG_OF_PERICENTER":"63.0407","SITE":"AFETR","APOAPSIS":"540.903","ECCENTRICITY":"0.00016230","PERIAPSIS":"538.657","BSTAR":"0.00067772000000","TLE_LINE2":"2 51992  53.2167  80.5665 0001623  63.0407  99.4749 15.08828663 26685","INCLINATION":"53.2167"},{"REF_FRAME":"TEME","EPHEMERIS_TYPE":"0","OBJECT_TYPE":"PAYLOAD","NORAD_CAT_ID":"51993","RCS_SIZE":"LARGE","SEMIMAJOR_AXIS":"6917.896","OBJECT_ID":"2022-025AP","MEAN_MOTION":"15.08834874","COUNTRY_CODE":"US","RA_OF_ASC_NODE":"100.5700","CLASSIFICATION_TYPE":"U","CENTER_NAME":"EARTH","MEAN_ANOMALY":"325.9178","REV_AT_EPOCH":"2640","MEAN_MOTION_DDOT":"0.0000000000000","SITE":"AFETR","APOAPSIS":"540.857","TLE_LINE1":"1 51993U 22025AP  22232.91667824 -.00009222  00000-0 -56211-3 0  9997","ELEMENT_SET_NO":"999","PERIOD":"95.438","ARG_OF_PERICENTER":"66.5952","EPOCH":"2022-08-20T22:00:00.999936","LAUNCH_DATE":"2022-03-09","DECAY_DATE":null,"FILE":"3541466","MEAN_MOTION_DOT":"-0.00009222","MEAN_ELEMENT_THEORY":"SGP4","OBJECT_NAME":"STARLINK-3648","GP_ID":"210591011","TIME_SYSTEM":"UTC","INCLINATION":"53.2184","BSTAR":"-0.00056211000000","TLE_LINE2":"2 51993  53.2184 100.5700 0001584  66.5952 325.9178 15.08834874 26401","PERIAPSIS":"538.665","ECCENTRICITY":"0.00015840"},{"COUNTRY_CODE":"US","RA_OF_ASC_NODE":"80.1925","CLASSIFICATION_TYPE":"U","MEAN_MOTION_DDOT":"0.0000000000000","CENTER_NAME":"EARTH","MEAN_ANOMALY":"211.4987","REV_AT_EPOCH":"2669","OBJECT_TYPE":"PAYLOAD","NORAD_CAT_ID":"51994","RCS_SIZE":"LARGE","REF_FRAME":"TEME","EPHEMERIS_TYPE":"0","MEAN_MOTION":"15.08806313","SEMIMAJOR_AXIS":"6917.983","OBJECT_ID":"2022-025AQ","TLE_LINE2":"2 51994  53.2169  80.1925 0001700  63.9477 211.4987 15.08806313 26695","BSTAR":"0.00267100000000","INCLINATION":"53.2169","ECCENTRICITY":"0.00017000","PERIAPSIS":"538.672","TLE_LINE1":"1 51994U 22025AQ  22233.00001157  .00042438  00000-0  26710-2 0  9994","ELEMENT_SET_NO":"999","PERIOD":"95.440","EPOCH":"2022-08-21T00:00:00.999648","ARG_OF_PERICENTER":"63.9477","LAUNCH_DATE":"2022-03-09","SITE":"AFETR","APOAPSIS":"541.024","OBJECT_NAME":"STARLINK-3647","TIME_SYSTEM":"UTC","GP_ID":"210597759","FILE":"3541756","DECAY_DATE":null,"MEAN_MOTION_DOT":"0.00042438","MEAN_ELEMENT_THEORY":"SGP4"},{"EPHEMERIS_TYPE":"0","REF_FRAME":"TEME","RCS_SIZE":"LARGE","NORAD_CAT_ID":"51995","OBJECT_TYPE":"PAYLOAD","OBJECT_ID":"2022-025AR","SEMIMAJOR_AXIS":"6917.931","MEAN_MOTION":"15.08823411","CLASSIFICATION_TYPE":"U","RA_OF_ASC_NODE":"80.5584","COUNTRY_CODE":"US","REV_AT_EPOCH":"130","MEAN_ANOMALY":"47.8911","CENTER_NAME":"EARTH","MEAN_MOTION_DDOT":"0.0000000000000","APOAPSIS":"540.745","SITE":"AFETR","LAUNCH_DATE":"2022-03-09","PERIOD":"95.439","ARG_OF_PERICENTER":"74.6052","EPOCH":"2022-08-20T22:00:00.999936","ELEMENT_SET_NO":"999","TLE_LINE1":"1 51995U 22025AR  22232.91667824  .00008997  00000-0  58291-3 0  9995","MEAN_ELEMENT_THEORY":"SGP4","MEAN_MOTION_DOT":"0.00008997","FILE":"3541760","DECAY_DATE":null,"TIME_SYSTEM":"UTC","GP_ID":"210621872","OBJECT_NAME":"STARLINK-3636","INCLINATION":"53.2158","TLE_LINE2":"2 51995  53.2158  80.5584 0001372  74.6052  47.8911 15.08823411  1309","BSTAR":"0.00058291000000","PERIAPSIS":"538.847","ECCENTRICITY":"0.00013720"},{"MEAN_MOTION":"15.08825269","SEMIMAJOR_AXIS":"6917.925","OBJECT_ID":"2022-025AS","NORAD_CAT_ID":"51996","OBJECT_TYPE":"PAYLOAD","RCS_SIZE":"LARGE","EPHEMERIS_TYPE":"0","REF_FRAME":"TEME","MEAN_MOTION_DDOT":"0.0000000000000","MEAN_ANOMALY":"125.2542","CENTER_NAME":"EARTH","REV_AT_EPOCH":"130","CLASSIFICATION_TYPE":"U","COUNTRY_CODE":"US","RA_OF_ASC_NODE":"80.5661","OBJECT_NAME":"STARLINK-3538","TIME_SYSTEM":"UTC","GP_ID":"210620648","MEAN_ELEMENT_THEORY":"SGP4","MEAN_MOTION_DOT":"0.00011520","DECAY_DATE":null,"FILE":"3541760","ELEMENT_SET_NO":"999","TLE_LINE1":"1 51996U 22025AS  22232.91667824  .00011520  00000-0  74101-3 0  9990","LAUNCH_DATE":"2022-03-09","PERIOD":"95.438","EPOCH":"2022-08-20T22:00:00.999936","ARG_OF_PERICENTER":"77.2623","SITE":"AFETR","APOAPSIS":"540.794","ECCENTRICITY":"0.00014500","PERIAPSIS":"538.787","BSTAR":"0.00074101000000","TLE_LINE2":"2 51996  53.2171  80.5661 0001450  77.2623 125.2542 15.08825269  1305","INCLINATION":"53.2171"}];
